XRISM                   
1 57800U 23137A   24219.95076582  .00007922  00000+0  58634-3 0  9994
2 57800  31.0036  49.3309 0010023 352.1445   7.9033 15.01817600 50324
